[{"OBJECT_NAME":"KUIPER-00046","OBJECT_ID":"2025-134G","EPOCH":"2026-03-14T19:39:45.797184","MEAN_MOTION":14.79928218,"ECCENTRICITY":9.373e-5,"INCLINATION":51.8975,"RA_OF_ASC_NODE":220.365,"ARG_OF_PERICENTER":107.7109,"MEAN_ANOMALY":252.3955,"EPHEMERIS_TYPE":0,"CLASSIFICATION_TYPE":"U","NORAD_CAT_ID":64506,"ELEMENT_SET_NO":999,"REV_AT_EPOCH":4069,"BSTAR":0.00019629077,"MEAN_MOTION_DOT":1.275e-5,"MEAN_MOTION_DDOT":0},{"OBJECT_NAME":"KUIPER-00047","OBJECT_ID":"2025-134H","EPOCH":"2026-03-14T00:57:18.008928","MEAN_MOTION":14.77348275,"ECCENTRICITY":0.00023399,"INCLINATION":51.8967,"RA_OF_ASC_NODE":196.6881,"ARG_OF_PERICENTER":148.1843,"MEAN_ANOMALY":211.926,"EPHEMERIS_TYPE":0,"CLASSIFICATION_TYPE":"U","NORAD_CAT_ID":64507,"ELEMENT_SET_NO":999,"REV_AT_EPOCH":4095,"BSTAR":0.0012210802,"MEAN_MOTION_DOT":8.551e-5,"MEAN_MOTION_DDOT":0},{"OBJECT_NAME":"KUIPER-00048","OBJECT_ID":"2025-134J","EPOCH":"2026-03-14T12:16:06.124800","MEAN_MOTION":14.79945544,"ECCENTRICITY":7.292e-5,"INCLINATION":51.8986,"RA_OF_ASC_NODE":194.2537,"ARG_OF_PERICENTER":80.6954,"MEAN_ANOMALY":279.4091,"EPHEMERIS_TYPE":0,"CLASSIFICATION_TYPE":"U","NORAD_CAT_ID":64508,"ELEMENT_SET_NO":999,"REV_AT_EPOCH":4103,"BSTAR":0.00026118873,"MEAN_MOTION_DOT":1.771e-5,"MEAN_MOTION_DDOT":0},{"OBJECT_NAME":"KUIPER-00049","OBJECT_ID":"2025-134K","EPOCH":"2026-03-14T17:31:21.000288","MEAN_MOTION":14.83409997,"ECCENTRICITY":0.00012904,"INCLINATION":51.9,"RA_OF_ASC_NODE":206.3948,"ARG_OF_PERICENTER":149.3306,"MEAN_ANOMALY":210.7733,"EPHEMERIS_TYPE":0,"CLASSIFICATION_TYPE":"U","NORAD_CAT_ID":64509,"ELEMENT_SET_NO":999,"REV_AT_EPOCH":4088,"BSTAR":0.00093967673,"MEAN_MOTION_DOT":7.567e-5,"MEAN_MOTION_DDOT":0},{"OBJECT_NAME":"KUIPER-00050","OBJECT_ID":"2025-134L","EPOCH":"2026-03-14T16:46:33.022848","MEAN_MOTION":14.97071584,"ECCENTRICITY":0.00043485,"INCLINATION":51.8891,"RA_OF_ASC_NODE":189.1924,"ARG_OF_PERICENTER":340.7157,"MEAN_ANOMALY":19.3647,"EPHEMERIS_TYPE":0,"CLASSIFICATION_TYPE":"U","NORAD_CAT_ID":64510,"ELEMENT_SET_NO":999,"REV_AT_EPOCH":4112,"BSTAR":-0.0020931447,"MEAN_MOTION_DOT":-0.00024569,"MEAN_MOTION_DDOT":0},{"OBJECT_NAME":"KUIPER-00051","OBJECT_ID":"2025-134M","EPOCH":"2026-03-13T09:26:32.173152","MEAN_MOTION":14.83652376,"ECCENTRICITY":0.00043024,"INCLINATION":51.9023,"RA_OF_ASC_NODE":209.2974,"ARG_OF_PERICENTER":295.0705,"MEAN_ANOMALY":64.9813,"EPHEMERIS_TYPE":0,"CLASSIFICATION_TYPE":"U","NORAD_CAT_ID":64511,"ELEMENT_SET_NO":999,"REV_AT_EPOCH":4072,"BSTAR":-0.0043047956,"MEAN_MOTION_DOT":-0.00035927,"MEAN_MOTION_DDOT":0},{"OBJECT_NAME":"KUIPER-00053","OBJECT_ID":"2025-134P","EPOCH":"2026-03-14T15:19:00.188832","MEAN_MOTION":14.79953487,"ECCENTRICITY":5.858e-5,"INCLINATION":51.9006,"RA_OF_ASC_NODE":201.2133,"ARG_OF_PERICENTER":175.7813,"MEAN_ANOMALY":184.3154,"EPHEMERIS_TYPE":0,"CLASSIFICATION_TYPE":"U","NORAD_CAT_ID":64513,"ELEMENT_SET_NO":999,"REV_AT_EPOCH":4094,"BSTAR":0.00048189311,"MEAN_MOTION_DOT":3.456e-5,"MEAN_MOTION_DDOT":0},{"OBJECT_NAME":"KUIPER-00054","OBJECT_ID":"2025-134Q","EPOCH":"2026-03-14T17:04:06.942144","MEAN_MOTION":14.79933342,"ECCENTRICITY":5.319e-5,"INCLINATION":51.8978,"RA_OF_ASC_NODE":195.8589,"ARG_OF_PERICENTER":57.8933,"MEAN_ANOMALY":302.2081,"EPHEMERIS_TYPE":0,"CLASSIFICATION_TYPE":"U","NORAD_CAT_ID":64514,"ELEMENT_SET_NO":999,"REV_AT_EPOCH":4102,"BSTAR":0.00097629985,"MEAN_MOTION_DOT":7.23e-5,"MEAN_MOTION_DDOT":0},{"OBJECT_NAME":"KUIPER-00055","OBJECT_ID":"2025-134R","EPOCH":"2026-03-14T15:12:51.954624","MEAN_MOTION":15.20737119,"ECCENTRICITY":0.00020893,"INCLINATION":51.8907,"RA_OF_ASC_NODE":156.4715,"ARG_OF_PERICENTER":42.4072,"MEAN_ANOMALY":317.7069,"EPHEMERIS_TYPE":0,"CLASSIFICATION_TYPE":"U","NORAD_CAT_ID":64515,"ELEMENT_SET_NO":999,"REV_AT_EPOCH":4157,"BSTAR":0.00091238582,"MEAN_MOTION_DOT":0.00020077,"MEAN_MOTION_DDOT":0},{"OBJECT_NAME":"KUIPER-00056","OBJECT_ID":"2025-134S","EPOCH":"2026-03-14T22:00:01.999584","MEAN_MOTION":14.80420374,"ECCENTRICITY":7.493e-5,"INCLINATION":51.9005,"RA_OF_ASC_NODE":200.004,"ARG_OF_PERICENTER":129.9677,"MEAN_ANOMALY":93.6022,"EPHEMERIS_TYPE":0,"CLASSIFICATION_TYPE":"U","NORAD_CAT_ID":64516,"ELEMENT_SET_NO":999,"REV_AT_EPOCH":491,"BSTAR":-0.0022852078,"MEAN_MOTION_DOT":-0.000178,"MEAN_MOTION_DDOT":0},{"OBJECT_NAME":"KUIPER-00057","OBJECT_ID":"2025-134T","EPOCH":"2026-03-14T22:00:01.999584","MEAN_MOTION":14.80771967,"ECCENTRICITY":0.00013357,"INCLINATION":51.898,"RA_OF_ASC_NODE":207.4711,"ARG_OF_PERICENTER":107.6306,"MEAN_ANOMALY":156.6441,"EPHEMERIS_TYPE":0,"CLASSIFICATION_TYPE":"U","NORAD_CAT_ID":64517,"ELEMENT_SET_NO":999,"REV_AT_EPOCH":469,"BSTAR":-0.0024287368,"MEAN_MOTION_DOT":-0.00019059,"MEAN_MOTION_DDOT":0},{"OBJECT_NAME":"KUIPER-00058","OBJECT_ID":"2025-134U","EPOCH":"2026-03-14T18:29:41.459136","MEAN_MOTION":14.79931518,"ECCENTRICITY":6.866e-5,"INCLINATION":51.8999,"RA_OF_ASC_NODE":203.0657,"ARG_OF_PERICENTER":95.3921,"MEAN_ANOMALY":264.712,"EPHEMERIS_TYPE":0,"CLASSIFICATION_TYPE":"U","NORAD_CAT_ID":64518,"ELEMENT_SET_NO":999,"REV_AT_EPOCH":4093,"BSTAR":7.6462968e-5,"MEAN_MOTION_DOT":3.62e-6,"MEAN_MOTION_DDOT":0},{"OBJECT_NAME":"KUIPER-00059","OBJECT_ID":"2025-134V","EPOCH":"2026-03-14T15:23:09.048480","MEAN_MOTION":14.79921693,"ECCENTRICITY":7.143e-5,"INCLINATION":51.8982,"RA_OF_ASC_NODE":198.6907,"ARG_OF_PERICENTER":182.7929,"MEAN_ANOMALY":177.3029,"EPHEMERIS_TYPE":0,"CLASSIFICATION_TYPE":"U","NORAD_CAT_ID":64519,"ELEMENT_SET_NO":999,"REV_AT_EPOCH":4098,"BSTAR":0.00092092439,"MEAN_MOTION_DOT":6.805e-5,"MEAN_MOTION_DDOT":0},{"OBJECT_NAME":"KUIPER-00060","OBJECT_ID":"2025-134W","EPOCH":"2026-03-14T22:00:01.999584","MEAN_MOTION":14.79705977,"ECCENTRICITY":0.000129,"INCLINATION":51.9009,"RA_OF_ASC_NODE":197.4998,"ARG_OF_PERICENTER":93.5696,"MEAN_ANOMALY":119.3982,"EPHEMERIS_TYPE":0,"CLASSIFICATION_TYPE":"U","NORAD_CAT_ID":64520,"ELEMENT_SET_NO":999,"REV_AT_EPOCH":428,"BSTAR":-0.0010667375,"MEAN_MOTION_DOT":-8.299e-5,"MEAN_MOTION_DDOT":0},{"OBJECT_NAME":"KUIPER-00061","OBJECT_ID":"2025-134X","EPOCH":"2026-03-14T18:25:48.820224","MEAN_MOTION":14.79926747,"ECCENTRICITY":7.302e-5,"INCLINATION":51.8996,"RA_OF_ASC_NODE":205.6342,"ARG_OF_PERICENTER":113.2728,"MEAN_ANOMALY":246.8311,"EPHEMERIS_TYPE":0,"CLASSIFICATION_TYPE":"U","NORAD_CAT_ID":64521,"ELEMENT_SET_NO":999,"REV_AT_EPOCH":4088,"BSTAR":0.00085347231,"MEAN_MOTION_DOT":6.29e-5,"MEAN_MOTION_DDOT":0},{"OBJECT_NAME":"KUIPER-00062","OBJECT_ID":"2025-134Y","EPOCH":"2026-03-14T18:21:50.706144","MEAN_MOTION":14.79942214,"ECCENTRICITY":5.232e-5,"INCLINATION":51.8946,"RA_OF_ASC_NODE":208.1765,"ARG_OF_PERICENTER":70.7866,"MEAN_ANOMALY":289.3153,"EPHEMERIS_TYPE":0,"CLASSIFICATION_TYPE":"U","NORAD_CAT_ID":64522,"ELEMENT_SET_NO":999,"REV_AT_EPOCH":4086,"BSTAR":0.0008385645,"MEAN_MOTION_DOT":6.179e-5,"MEAN_MOTION_DDOT":0}]
