KUIPER-00046            
1 64506U 25134G   26073.81928006  .00001275  00000+0  19629-3 0  9992
2 64506  51.8975 220.3650 0000937 107.7109 252.3955 14.79928218 40691
KUIPER-00047            
1 64507U 25134H   26073.03979177  .00008551  00000+0  12211-2 0  9995
2 64507  51.8967 196.6881 0002339 148.1843 211.9260 14.77348275 40952
KUIPER-00048            
1 64508U 25134J   26073.51118200  .00001771  00000+0  26119-3 0  9991
2 64508  51.8986 194.2537 0000729  80.6954 279.4091 14.79945544 41035
KUIPER-00049            
1 64509U 25134K   26073.73010417  .00007567  00000+0  93968-3 0  9992
2 64509  51.9000 206.3948 0001290 149.3306 210.7733 14.83409997 40888
KUIPER-00050            
1 64510U 25134L   26073.69899332 -.00024569  00000+0 -20931-2 0  9992
2 64510  51.8891 189.1924 0004348 340.7157  19.3647 14.97071584 41124
KUIPER-00051            
1 64511U 25134M   26072.39342793 -.00035927  00000+0 -43048-2 0  9997
2 64511  51.9023 209.2974 0004302 295.0705  64.9813 14.83652376 40728
KUIPER-00053            
1 64513U 25134P   26073.63819663  .00003456  00000+0  48189-3 0  9994
2 64513  51.9006 201.2133 0000585 175.7813 184.3154 14.79953487 40944
KUIPER-00054            
1 64514U 25134Q   26073.71119146  .00007230  00000+0  97630-3 0  9992
2 64514  51.8978 195.8589 0000531  57.8933 302.2081 14.79933342 41027
KUIPER-00055            
1 64515U 25134R   26073.63393466  .00020077  00000+0  91239-3 0  9996
2 64515  51.8907 156.4715 0002089  42.4072 317.7069 15.20737119 41576
KUIPER-00056            
1 64516U 25134S   26073.91668981 -.00017800  00000+0 -22852-2 0  9991
2 64516  51.9005 200.0040 0000749 129.9677  93.6022 14.80420374  4910
KUIPER-00057            
1 64517U 25134T   26073.91668981 -.00019059  00000+0 -24287-2 0  9994
2 64517  51.8980 207.4711 0001335 107.6306 156.6441 14.80771967  4699
KUIPER-00058            
1 64518U 25134U   26073.77061874  .00000362  00000+0  76463-4 0  9997
2 64518  51.8999 203.0657 0000686  95.3921 264.7120 14.79931518 40935
KUIPER-00059            
1 64519U 25134V   26073.64107695  .00006805  00000+0  92092-3 0  9999
2 64519  51.8982 198.6907 0000714 182.7929 177.3029 14.79921693 40981
KUIPER-00060            
1 64520U 25134W   26073.91668981 -.00008299  00000+0 -10667-2 0  9999
2 64520  51.9009 197.4998 0001290  93.5696 119.3982 14.79705977  4283
KUIPER-00061            
1 64521U 25134X   26073.76792616  .00006290  00000+0  85347-3 0  9991
2 64521  51.8996 205.6342 0000730 113.2728 246.8311 14.79926747 40885
KUIPER-00062            
1 64522U 25134Y   26073.76517021  .00006179  00000+0  83856-3 0  9996
2 64522  51.8946 208.1765 0000523  70.7866 289.3153 14.79942214 40869
